[{"OBJECT_NAME":"STARLINK-31359","OBJECT_ID":"2024-027Q","EPOCH":"2026-03-09T20:38:17.799936","MEAN_MOTION":15.30181732,"ECCENTRICITY":0.00012847,"INCLINATION":53.1579,"RA_OF_ASC_NODE":270.3947,"ARG_OF_PERICENTER":99.4481,"MEAN_ANOMALY":260.6665,"EPHEMERIS_TYPE":0,"CLASSIFICATION_TYPE":"U","NORAD_CAT_ID":58945,"ELEMENT_SET_NO":999,"REV_AT_EPOCH":11790,"BSTAR":5.5195127e-5,"MEAN_MOTION_DOT":1.275e-5,"MEAN_MOTION_DDOT":0},{"OBJECT_NAME":"KUIPER-00213","OBJECT_ID":"2026-030P","EPOCH":"2026-03-09T22:00:01.999584","MEAN_MOTION":15.32626943,"ECCENTRICITY":0.00152813,"INCLINATION":51.8816,"RA_OF_ASC_NODE":218.5142,"ARG_OF_PERICENTER":64.2462,"MEAN_ANOMALY":206.8369,"EPHEMERIS_TYPE":0,"CLASSIFICATION_TYPE":"U","NORAD_CAT_ID":67777,"ELEMENT_SET_NO":999,"REV_AT_EPOCH":502,"BSTAR":0.0016072376,"MEAN_MOTION_DOT":0.00051551,"MEAN_MOTION_DDOT":0}]
